{
  "type": "FeatureCollection",
  "features": [
    {
      "type": "Feature",
      "properties": {
        "norad_id": 34556,
        "name": "COSMOS 2251 DEB",
        "group": "cosmos-2251-debris",
        "lat": -27.54509054674575,
        "lon": -59.2607562659768,
        "alt_km": 637.125381770672,
        "timestamp": "2025-12-19T04:59:48.701372+00:00",
        "meta_object_name": "COSMOS 2251 DEB",
        "meta_object_id": "1993-036US",
        "meta_epoch": "2025-12-18T17:12:46.541376",
        "meta_mean_motion": 14.77982629,
        "meta_eccentricity": 0.00070417,
        "meta_inclination": 74.0158,
        "meta_ra_of_asc_node": 113.106,
        "meta_arg_of_pericenter": 173.4887,
        "meta_mean_anomaly": 303.7225,
        "meta_ephemeris_type": 0,
        "meta_classification_type": "U",
        "meta_norad_cat_id": 34556,
        "meta_element_set_no": 999,
        "meta_rev_at_epoch": 88417,
        "meta_bstar": 0.0017847298,
        "meta_mean_motion_dot": 0.00012871,
        "meta_mean_motion_ddot": 0,
        "tle_line1": "1 34556U 93036US  25352.71720534  .00012871  00000+0  17847-2 0  9997",
        "tle_line2": "2 34556  74.0158 113.1060 0007041 173.4887 303.7225 14.77982629884177"
      },
      "geometry": {
        "type": "Point",
        "coordinates": [
          -59.2607562659768,
          -27.54509054674575
        ]
      }
    },
    {
      "type": "Feature",
      "properties": {
        "norad_id": 34560,
        "name": "COSMOS 2251 DEB",
        "group": "cosmos-2251-debris",
        "lat": -28.862573217280637,
        "lon": 120.44147185706449,
        "alt_km": 664.0619283442038,
        "timestamp": "2025-12-19T04:59:48.701383+00:00",
        "meta_object_name": "COSMOS 2251 DEB",
        "meta_object_id": "1993-036UW",
        "meta_epoch": "2025-12-18T20:01:55.517376",
        "meta_mean_motion": 14.72290219,
        "meta_eccentricity": 0.00142436,
        "meta_inclination": 74.0159,
        "meta_ra_of_asc_node": 130.259,
        "meta_arg_of_pericenter": 212.1833,
        "meta_mean_anomaly": 298.6419,
        "meta_ephemeris_type": 0,
        "meta_classification_type": "U",
        "meta_norad_cat_id": 34560,
        "meta_element_set_no": 999,
        "meta_rev_at_epoch": 88341,
        "meta_bstar": 0.0016989681,
        "meta_mean_motion_dot": 0.00010739,
        "meta_mean_motion_ddot": 0,
        "tle_line1": "1 34560U 93036UW  25352.83467034  .00010739  00000+0  16990-2 0  9997",
        "tle_line2": "2 34560  74.0159 130.2590 0014243 212.1833 298.6419 14.72290219883410"
      },
      "geometry": {
        "type": "Point",
        "coordinates": [
          120.44147185706449,
          -28.862573217280637
        ]
      }
    },
    {
      "type": "Feature",
      "properties": {
        "norad_id": 34563,
        "name": "COSMOS 2251 DEB",
        "group": "cosmos-2251-debris",
        "lat": -35.117371533419174,
        "lon": 23.24465576745379,
        "alt_km": 739.2872706151575,
        "timestamp": "2025-12-19T04:59:48.701393+00:00",
        "meta_object_name": "COSMOS 2251 DEB",
        "meta_object_id": "1993-036UZ",
        "meta_epoch": "2025-12-18T23:34:47.077248",
        "meta_mean_motion": 14.46528438,
        "meta_eccentricity": 0.00138966,
        "meta_inclination": 74.0369,
        "meta_ra_of_asc_node": 192.053,
        "meta_arg_of_pericenter": 285.6893,
        "meta_mean_anomaly": 196.1875,
        "meta_ephemeris_type": 0,
        "meta_classification_type": "U",
        "meta_norad_cat_id": 34563,
        "meta_element_set_no": 999,
        "meta_rev_at_epoch": 88287,
        "meta_bstar": 0.00032718131,
        "meta_mean_motion_dot": 1.153e-05,
        "meta_mean_motion_ddot": 0,
        "tle_line1": "1 34563U 93036UZ  25352.98248932  .00001153  00000+0  32718-3 0  9997",
        "tle_line2": "2 34563  74.0369 192.0530 0013896 285.6893 196.1875 14.46528438882875"
      },
      "geometry": {
        "type": "Point",
        "coordinates": [
          23.24465576745379,
          -35.117371533419174
        ]
      }
    },
    {
      "type": "Feature",
      "properties": {
        "norad_id": 34564,
        "name": "COSMOS 2251 DEB",
        "group": "cosmos-2251-debris",
        "lat": -38.221424045460914,
        "lon": 59.07646649376441,
        "alt_km": 766.7031526237124,
        "timestamp": "2025-12-19T04:59:48.701403+00:00",
        "meta_object_name": "COSMOS 2251 DEB",
        "meta_object_id": "1993-036VA",
        "meta_epoch": "2025-12-18T20:13:14.968704",
        "meta_mean_motion": 14.40700578,
        "meta_eccentricity": 0.00192438,
        "meta_inclination": 74.0318,
        "meta_ra_of_asc_node": 226.7209,
        "meta_arg_of_pericenter": 329.7579,
        "meta_mean_anomaly": 154.634,
        "meta_ephemeris_type": 0,
        "meta_classification_type": "U",
        "meta_norad_cat_id": 34564,
        "meta_element_set_no": 999,
        "meta_rev_at_epoch": 88094,
        "meta_bstar": 0.00019604533,
        "meta_mean_motion_dot": 6.01e-06,
        "meta_mean_motion_ddot": 0,
        "tle_line1": "1 34564U 93036VA  25352.84253436  .00000601  00000+0  19605-3 0  9995",
        "tle_line2": "2 34564  74.0318 226.7209 0019243 329.7579 154.6340 14.40700578880944"
      },
      "geometry": {
        "type": "Point",
        "coordinates": [
          59.07646649376441,
          -38.221424045460914
        ]
      }
    },
    {
      "type": "Feature",
      "properties": {
        "norad_id": 34567,
        "name": "COSMOS 2251 DEB",
        "group": "cosmos-2251-debris",
        "lat": -55.11877901719306,
        "lon": -10.625812541339537,
        "alt_km": 768.3620069952576,
        "timestamp": "2025-12-19T04:59:48.701413+00:00",
        "meta_object_name": "COSMOS 2251 DEB",
        "meta_object_id": "1993-036VD",
        "meta_epoch": "2025-12-18T21:53:53.679840",
        "meta_mean_motion": 14.24023202,
        "meta_eccentricity": 0.0074285,
        "meta_inclination": 74.0405,
        "meta_ra_of_asc_node": 145.6706,
        "meta_arg_of_pericenter": 218.6375,
        "meta_mean_anomaly": 303.884,
        "meta_ephemeris_type": 0,
        "meta_classification_type": "U",
        "meta_norad_cat_id": 34567,
        "meta_element_set_no": 999,
        "meta_rev_at_epoch": 87212,
        "meta_bstar": 0.0001927977,
        "meta_mean_motion_dot": 4.3e-06,
        "meta_mean_motion_ddot": 0,
        "tle_line1": "1 34567U 93036VD  25352.91242685  .00000430  00000+0  19280-3 0  9999",
        "tle_line2": "2 34567  74.0405 145.6706 0074285 218.6375 303.8840 14.24023202872120"
      },
      "geometry": {
        "type": "Point",
        "coordinates": [
          -10.625812541339537,
          -55.11877901719306
        ]
      }
    },
    {
      "type": "Feature",
      "properties": {
        "norad_id": 34569,
        "name": "COSMOS 2251 DEB",
        "group": "cosmos-2251-debris",
        "lat": 58.97268465616326,
        "lon": -145.04714837932698,
        "alt_km": 729.0213156255841,
        "timestamp": "2025-12-19T04:59:48.701424+00:00",
        "meta_object_name": "COSMOS 2251 DEB",
        "meta_object_id": "1993-036VF",
        "meta_epoch": "2025-12-18T08:45:09.793152",
        "meta_mean_motion": 14.24766688,
        "meta_eccentricity": 0.01575553,
        "meta_inclination": 73.9892,
        "meta_ra_of_asc_node": 187.965,
        "meta_arg_of_pericenter": 15.0684,
        "meta_mean_anomaly": 41.9169,
        "meta_ephemeris_type": 0,
        "meta_classification_type": "U",
        "meta_norad_cat_id": 34569,
        "meta_element_set_no": 999,
        "meta_rev_at_epoch": 87048,
        "meta_bstar": 0.00038085934,
        "meta_mean_motion_dot": 9.83e-06,
        "meta_mean_motion_ddot": 0,
        "tle_line1": "1 34569U 93036VF  25352.36469668  .00000983  00000+0  38086-3 0  9990",
        "tle_line2": "2 34569  73.9892 187.9650 0157555  15.0684  41.9169 14.24766688870484"
      },
      "geometry": {
        "type": "Point",
        "coordinates": [
          -145.04714837932698,
          58.97268465616326
        ]
      }
    },
    {
      "type": "Feature",
      "properties": {
        "norad_id": 34570,
        "name": "COSMOS 2251 DEB",
        "group": "cosmos-2251-debris",
        "lat": 43.90359521891207,
        "lon": 10.956496264753689,
        "alt_km": 792.2212911234519,
        "timestamp": "2025-12-19T04:59:48.701435+00:00",
        "meta_object_name": "COSMOS 2251 DEB",
        "meta_object_id": "1993-036VG",
        "meta_epoch": "2025-12-17T14:47:22.949376",
        "meta_mean_motion": 13.99827814,
        "meta_eccentricity": 0.01902686,
        "meta_inclination": 73.9566,
        "meta_ra_of_asc_node": 209.802,
        "meta_arg_of_pericenter": 91.1991,
        "meta_mean_anomaly": 301.5791,
        "meta_ephemeris_type": 0,
        "meta_classification_type": "U",
        "meta_norad_cat_id": 34570,
        "meta_element_set_no": 999,
        "meta_rev_at_epoch": 85669,
        "meta_bstar": 0.00040162603,
        "meta_mean_motion_dot": 6.66e-06,
        "meta_mean_motion_ddot": 0,
        "tle_line1": "1 34570U 93036VG  25351.61623784  .00000666  00000+0  40163-3 0  9997",
        "tle_line2": "2 34570  73.9566 209.8020 0190268  91.1991 301.5791 13.99827814856696"
      },
      "geometry": {
        "type": "Point",
        "coordinates": [
          10.956496264753689,
          43.90359521891207
        ]
      }
    }
  ]
}